{"type":"FeatureCollection","crs":{"type":"name","properties":{"name":"PROJCS[\"Mars_Equirectangular\",GEOGCS[\"GCS_Mars_2000_Sphere\",DATUM[\"D_Mars_2000_Sphere\",SPHEROID[\"Mars_2000_Sphere_IAU_IAG\",3396190,0]],PRIMEM[\"Reference_Meridian\",0],UNIT[\"degree\",0.0174532925199433,AUTHORITY[\"EPSG\",\"9122\"]]],PROJECTION[\"Equirectangular\"],PARAMETER[\"standard_parallel_1\",0],PARAMETER[\"central_meridian\",0],PARAMETER[\"false_easting\",0],PARAMETER[\"false_northing\",0],UNIT[\"metre\",1,AUTHORITY[\"EPSG\",\"9001\"]],AXIS[\"Easting\",EAST],AXIS[\"Northing\",NORTH]]"}},"features":[]}