{"type":"FeatureCollection","crs":{"type":"name","properties":{"name":"PROJCS[\"Mars_Equirectangular\",GEOGCS[\"GCS_Mars_2000_Sphere\",DATUM[\"D_Mars_2000_Sphere\",SPHEROID[\"Mars_2000_Sphere_IAU_IAG\",3396190,0]],PRIMEM[\"Reference_Meridian\",0],UNIT[\"degree\",0.0174532925199433,AUTHORITY[\"EPSG\",\"9122\"]]],PROJECTION[\"Equirectangular\"],PARAMETER[\"standard_parallel_1\",0],PARAMETER[\"central_meridian\",0],PARAMETER[\"false_easting\",0],PARAMETER[\"false_northing\",0],UNIT[\"metre\",1,AUTHORITY[\"EPSG\",\"9001\"]],AXIS[\"Easting\",EAST],AXIS[\"Northing\",NORTH]]"}},"features":[{"type":"Feature","geometry":{"type":"Polygon","coordinates":[[[9288357.102043297,-2412492.189474746],[9288357.102043297,-2434584.697927421],[9312909.390965797,-2434584.697927421],[9312909.390965797,-2412492.189474746],[9288357.102043297,-2412492.189474746]]]},"properties":{"area_m2":542421650.55,"area_ha":54242.1651}}]}